{"type": "FeatureCollection", "features": [ {"type": "Feature", "properties": {"norad_id": 31428, "name": "FENGYUN 1C DEB", "group": "fengyun-1c-debris", "lat": 4.975216809054214, "lon": 145.91689003156816, "alt_km": 719.1303425234482, "timestamp": "2025-12-19T06:59:44.190990+00:00", "meta": {"OBJECT_NAME": "FENGYUN 1C DEB", "OBJECT_ID": "1999-025BTQ", "EPOCH": "2025-12-18T09:16:09.134976", "MEAN_MOTION": 14.42039984, "ECCENTRICITY": 0.00641699, "INCLINATION": 99.0374, "RA_OF_ASC_NODE": 324.1651, "ARG_OF_PERICENTER": 136.9554, "MEAN_ANOMALY": 20.532, "EPHEMERIS_TYPE": 0, "CLASSIFICATION_TYPE": "U", "NORAD_CAT_ID": 31428, "ELEMENT_SET_NO": 999, "REV_AT_EPOCH": 97591, "BSTAR": 0.00057334028, "MEAN_MOTION_DOT": 1.88e-05, "MEAN_MOTION_DDOT": 0}, "tle": {"line1": "1 31428U 99025BTQ 25352.38621684  .00001880  00000+0  57334-3 0  9999", "line2": "2 31428  99.0374 324.1651 0064169 136.9554  20.5320 14.42039984975910"}}, "geometry": {"type": "Point", "coordinates": [145.91689003156816, 4.975216809054214]}}, {"type": "Feature", "properties": {"norad_id": 31429, "name": "FENGYUN 1C DEB", "group": "fengyun-1c-debris", "lat": 52.90610875458017, "lon": -126.19522484619065, "alt_km": 809.9229710667023, "timestamp": "2025-12-19T06:59:44.191000+00:00", "meta": {"OBJECT_NAME": "FENGYUN 1C DEB", "OBJECT_ID": "1999-025BTR", "EPOCH": "2025-12-18T01:51:13.848768", "MEAN_MOTION": 14.22590376, "ECCENTRICITY": 0.00144032, "INCLINATION": 98.689, "RA_OF_ASC_NODE": 40.9394, "ARG_OF_PERICENTER": 48.878, "MEAN_ANOMALY": 342.0861, "EPHEMERIS_TYPE": 0, "CLASSIFICATION_TYPE": "U", "NORAD_CAT_ID": 31429, "ELEMENT_SET_NO": 999, "REV_AT_EPOCH": 96029, "BSTAR": 0.00076838405, "MEAN_MOTION_DOT": 1.675e-05, "MEAN_MOTION_DDOT": 0}, "tle": {"line1": "1 31429U 99025BTR 25352.07724362  .00001675  00000+0  76838-3 0  9995", "line2": "2 31429  98.6890  40.9394 0014403  48.8780 342.0861 14.22590376960296"}}, "geometry": {"type": "Point", "coordinates": [-126.19522484619065, 52.90610875458017]}}, {"type": "Feature", "properties": {"norad_id": 31430, "name": "FENGYUN 1C DEB", "group": "fengyun-1c-debris", "lat": 76.59102754326365, "lon": -83.49606929292275, "alt_km": 794.7490380523632, "timestamp": "2025-12-19T06:59:44.191010+00:00", "meta": {"OBJECT_NAME": "FENGYUN 1C DEB", "OBJECT_ID": "1999-025BTS", "EPOCH": "2025-12-18T16:04:37.829856", "MEAN_MOTION": 14.25628503, "ECCENTRICITY": 0.00265283, "INCLINATION": 98.7434, "RA_OF_ASC_NODE": 55.6783, "ARG_OF_PERICENTER": 25.0978, "MEAN_ANOMALY": 126.3702, "EPHEMERIS_TYPE": 0, "CLASSIFICATION_TYPE": "U", "NORAD_CAT_ID": 31430, "ELEMENT_SET_NO": 999, "REV_AT_EPOCH": 96202, "BSTAR": 0.00072556449, "MEAN_MOTION_DOT": 1.681e-05, "MEAN_MOTION_DDOT": 0}, "tle": {"line1": "1 31430U 99025BTS 25352.66988229  .00001681  00000+0  72556-3 0  9996", "line2": "2 31430  98.7434  55.6783 0026528  25.0978 126.3702 14.25628503962022"}}, "geometry": {"type": "Point", "coordinates": [-83.49606929292275, 76.59102754326365]}}, {"type": "Feature", "properties": {"norad_id": 31431, "name": "FENGYUN 1C DEB", "group": "fengyun-1c-debris", "lat": -2.3320583103865324, "lon": 60.72031110988918, "alt_km": 910.6760324958277, "timestamp": "2025-12-19T06:59:44.191020+00:00", "meta": {"OBJECT_NAME": "FENGYUN 1C DEB", "OBJECT_ID": "1999-025BTT", "EPOCH": "2025-12-17T02:48:02.899008", "MEAN_MOTION": 14.0310372, "ECCENTRICITY": 0.01337574, "INCLINATION": 98.5434, "RA_OF_ASC_NODE": 239.0286, "ARG_OF_PERICENTER": 83.045, "MEAN_ANOMALY": 278.5911, "EPHEMERIS_TYPE": 0, "CLASSIFICATION_TYPE": "U", "NORAD_CAT_ID": 31431, "ELEMENT_SET_NO": 999, "REV_AT_EPOCH": 94593, "BSTAR": 0.001336432, "MEAN_MOTION_DOT": 2.211e-05, "MEAN_MOTION_DDOT": 0}, "tle": {"line1": "1 31431U 99025BTT 25351.11670022  .00002211  00000+0  13364-2 0  9996", "line2": "2 31431  98.5434 239.0286 0133757  83.0450 278.5911 14.03103720945937"}}, "geometry": {"type": "Point", "coordinates": [60.72031110988918, -2.3320583103865324]}}, {"type": "Feature", "properties": {"norad_id": 31433, "name": "FENGYUN 1C DEB", "group": "fengyun-1c-debris", "lat": -80.85141724970063, "lon": -36.7613230575726, "alt_km": 822.0655999924129, "timestamp": "2025-12-19T06:59:44.191030+00:00", "meta": {"OBJECT_NAME": "FENGYUN 1C DEB", "OBJECT_ID": "1999-025BTV", "EPOCH": "2025-12-18T06:42:51.715008", "MEAN_MOTION": 14.25490994, "ECCENTRICITY": 0.01002675, "INCLINATION": 98.411, "RA_OF_ASC_NODE": 255.525, "ARG_OF_PERICENTER": 13.4547, "MEAN_ANOMALY": 112.3378, "EPHEMERIS_TYPE": 0, "CLASSIFICATION_TYPE": "U", "NORAD_CAT_ID": 31433, "ELEMENT_SET_NO": 999, "REV_AT_EPOCH": 95631, "BSTAR": 0.0021022804, "MEAN_MOTION_DOT": 5.197e-05, "MEAN_MOTION_DDOT": 0}, "tle": {"line1": "1 31433U 99025BTV 25352.27976522  .00005197  00000+0  21023-2 0  9997", "line2": "2 31433  98.4110 255.5250 0100267  13.4547 112.3378 14.25490994956319"}}, "geometry": {"type": "Point", "coordinates": [-36.7613230575726, -80.85141724970063]}}, {"type": "Feature", "properties": {"norad_id": 31435, "name": "FENGYUN 1C DEB", "group": "fengyun-1c-debris", "lat": -66.1405522999481, "lon": -173.2771618052548, "alt_km": 791.4770724811497, "timestamp": "2025-12-19T06:59:44.191040+00:00", "meta": {"OBJECT_NAME": "FENGYUN 1C DEB", "OBJECT_ID": "1999-025BTX", "EPOCH": "2025-12-17T22:16:16.879296", "MEAN_MOTION": 14.5344893, "ECCENTRICITY": 0.01492409, "INCLINATION": 99.0367, "RA_OF_ASC_NODE": 164.1637, "ARG_OF_PERICENTER": 164.3853, "MEAN_ANOMALY": 196.2019, "EPHEMERIS_TYPE": 0, "CLASSIFICATION_TYPE": "U", "NORAD_CAT_ID": 31435, "ELEMENT_SET_NO": 999, "REV_AT_EPOCH": 98448, "BSTAR": 0.00019866345, "MEAN_MOTION_DOT": 8.98e-06, "MEAN_MOTION_DDOT": 0}, "tle": {"line1": "1 31435U 99025BTX 25351.92797314  .00000898  00000+0  19866-3 0  9996", "line2": "2 31435  99.0367 164.1637 0149240 164.3853 196.2019 14.53448930984482"}}, "geometry": {"type": "Point", "coordinates": [-173.2771618052548, -66.1405522999481]}}, {"type": "Feature", "properties": {"norad_id": 31436, "name": "FENGYUN 1C DEB", "group": "fengyun-1c-debris", "lat": 58.802538019172005, "lon": 42.05020141445718, "alt_km": 584.3947484571509, "timestamp": "2025-12-19T06:59:44.191051+00:00", "meta": {"OBJECT_NAME": "FENGYUN 1C DEB", "OBJECT_ID": "1999-025BTY", "EPOCH": "2025-12-18T02:12:23.724000", "MEAN_MOTION": 14.94196888, "ECCENTRICITY": 0.00423516, "INCLINATION": 98.8804, "RA_OF_ASC_NODE": 205.7321, "ARG_OF_PERICENTER": 224.8864, "MEAN_ANOMALY": 286.7554, "EPHEMERIS_TYPE": 0, "CLASSIFICATION_TYPE": "U", "NORAD_CAT_ID": 31436, "ELEMENT_SET_NO": 999, "REV_AT_EPOCH": 96956, "BSTAR": 0.0037078576, "MEAN_MOTION_DOT": 0.00040574, "MEAN_MOTION_DDOT": 0}, "tle": {"line1": "1 31436U 99025BTY 25352.09194125  .00040574  00000+0  37079-2 0  9997", "line2": "2 31436  98.8804 205.7321 0042351 224.8864 286.7554 14.94196888969565"}}, "geometry": {"type": "Point", "coordinates": [42.05020141445718, 58.802538019172005]}}, {"type": "Feature", "properties": {"norad_id": 31437, "name": "FENGYUN 1C DEB", "group": "fengyun-1c-debris", "lat": -44.58506549918601, "lon": -114.23458733117907, "alt_km": 745.2054887322593, "timestamp": "2025-12-19T06:59:44.191060+00:00", "meta": {"OBJECT_NAME": "FENGYUN 1C DEB", "OBJECT_ID": "1999-025BTZ", "EPOCH": "2025-12-16T18:01:38.589312", "MEAN_MOTION": 14.42571554, "ECCENTRICITY": 0.0016012, "INCLINATION": 98.8644, "RA_OF_ASC_NODE": 71.9744, "ARG_OF_PERICENTER": 236.7616, "MEAN_ANOMALY": 123.2038, "EPHEMERIS_TYPE": 0, "CLASSIFICATION_TYPE": "U", "NORAD_CAT_ID": 31437, "ELEMENT_SET_NO": 999, "REV_AT_EPOCH": 96568, "BSTAR": 0.0017299605, "MEAN_MOTION_DOT": 5.707e-05, "MEAN_MOTION_DDOT": 0}, "tle": {"line1": "1 31437U 99025BTZ 25350.75114108  .00005707  00000+0  17300-2 0  9996", "line2": "2 31437  98.8644  71.9744 0016012 236.7616 123.2038 14.42571554965683"}}, "geometry": {"type": "Point", "coordinates": [-114.23458733117907, -44.58506549918601]}}, {"type": "Feature", "properties": {"norad_id": 31439, "name": "FENGYUN 1C DEB", "group": "fengyun-1c-debris", "lat": -14.990109447962643, "lon": 1.512620115594397, "alt_km": 1007.3491757183738, "timestamp": "2025-12-19T06:59:44.191071+00:00", "meta": {"OBJECT_NAME": "FENGYUN 1C DEB", "OBJECT_ID": "1999-025BUB", "EPOCH": "2025-12-16T06:53:28.781952", "MEAN_MOTION": 13.95585021, "ECCENTRICITY": 0.01379888, "INCLINATION": 98.9165, "RA_OF_ASC_NODE": 356.1962, "ARG_OF_PERICENTER": 152.0725, "MEAN_ANOMALY": 227.5292, "EPHEMERIS_TYPE": 0, "CLASSIFICATION_TYPE": "U", "NORAD_CAT_ID": 31439, "ELEMENT_SET_NO": 999, "REV_AT_EPOCH": 63282, "BSTAR": 0.00051197114, "MEAN_MOTION_DOT": 7.12e-06, "MEAN_MOTION_DDOT": 0}, "tle": {"line1": "1 31439U 99025BUB 25350.28713868  .00000712  00000+0  51197-3 0  9998", "line2": "2 31439  98.9165 356.1962 0137988 152.0725 227.5292 13.95585021632829"}}, "geometry": {"type": "Point", "coordinates": [1.512620115594397, -14.990109447962643]}}, {"type": "Feature", "properties": {"norad_id": 31440, "name": "FENGYUN 1C DEB", "group": "fengyun-1c-debris", "lat": 4.614264285304019, "lon": -97.89441998732823, "alt_km": 793.5144952822739, "timestamp": "2025-12-19T06:59:44.191080+00:00", "meta": {"OBJECT_NAME": "FENGYUN 1C DEB", "OBJECT_ID": "1999-025BUC", "EPOCH": "2025-12-17T12:23:45.417696", "MEAN_MOTION": 14.36748322, "ECCENTRICITY": 0.00366489, "INCLINATION": 98.7472, "RA_OF_ASC_NODE": 79.5908, "ARG_OF_PERICENTER": 327.6515, "MEAN_ANOMALY": 32.2423, "EPHEMERIS_TYPE": 0, "CLASSIFICATION_TYPE": "U", "NORAD_CAT_ID": 31440, "ELEMENT_SET_NO": 999, "REV_AT_EPOCH": 96394, "BSTAR": 0.0014567311, "MEAN_MOTION_DOT": 4.286e-05, "MEAN_MOTION_DDOT": 0}, "tle": {"line1": "1 31440U 99025BUC 25351.51649789  .00004286  00000+0  14567-2 0  9996", "line2": "2 31440  98.7472  79.5908 0036648 327.6515  32.2423 14.36748322963942"}}, "geometry": {"type": "Point", "coordinates": [-97.89441998732823, 4.614264285304019]}}]}